GLOBALSTAR M035         
1 25851U 99037A   25194.93766569 -.00000031  00000+0  12469-2 0  9999
2 25851  51.9980 355.3102 0013893  28.1954 144.3619 11.04538960 99213
GLOBALSTAR M051         
1 25853U 99037C   25194.83355991 -.00000080  00000+0 -19373-3 0  9990
2 25853  51.9823 336.6120 0000326 173.7001 186.3814 11.42204550135435
GLOBALSTAR M030         
1 25854U 99037D   25194.90974146 -.00000058  00000+0  35882-3 0  9995
2 25854  51.9861 140.8337 0003222  86.6007 273.5178 11.55109109153136
GLOBALSTAR M048         
1 25872U 99041A   25194.66397812 -.00000040  00000+0  80193-3 0  9998
2 25872  51.9370 273.0810 0013624 229.2140 243.5090 11.33858026127985
GLOBALSTAR M026         
1 25873U 99041B   25194.97684391  .00000056  00000+0  44157-2 0  9999
2 25873  52.0008 112.8997 0002181 332.0180 111.0164 11.06843991151450
GLOBALSTAR M043         
1 25874U 99041C   25194.92776641 -.00000100  00000+0 -94776-3 0  9990
2 25874  51.9425  21.1614 0013417   1.0014 148.9125 11.25694629125880
GLOBALSTAR M028         
1 25875U 99041D   25194.84780436 -.00000039  00000+0  40175-3 0  9993
2 25875  51.9619 113.5671 0063379 128.8440 231.8100 12.50584607193511
